{
  "type": "FeatureCollection",
  "features": [
    {
      "type": "Feature",
      "properties": {
        "norad_id": 66877,
        "name": "ZQ-3 R/B",
        "group": "last-30-days",
        "lat": -56.911509176602266,
        "lon": -88.60575948421922,
        "alt_km": 184.05347478714248,
        "timestamp": "2025-12-26T13:39:17.666238+00:00",
        "meta_object_name": "ZQ-3 R/B",
        "meta_object_id": "2025-282A",
        "meta_epoch": "2025-12-26T07:35:39.811200",
        "meta_mean_motion": 14.87235222,
        "meta_eccentricity": 0.06644825,
        "meta_inclination": 56.9488,
        "meta_ra_of_asc_node": 4.606,
        "meta_arg_of_pericenter": 243.9844,
        "meta_mean_anomaly": 109.1326,
        "meta_ephemeris_type": 0,
        "meta_classification_type": "U",
        "meta_norad_cat_id": 66877,
        "meta_element_set_no": 999,
        "meta_rev_at_epoch": 339,
        "meta_bstar": 0.00016052508,
        "meta_mean_motion_dot": 0.00969835,
        "meta_mean_motion_ddot": 7.977161e-06,
        "tle_line1": "1 66877U 25282A   25360.31643300  .00969835  79772-5  16053-3 0  9994",
        "tle_line2": "2 66877  56.9488   4.6060 0664482 243.9844 109.1326 14.87235222  3399"
      },
      "geometry": {
        "type": "Point",
        "coordinates": [
          -88.60575948421922,
          -56.911509176602266
        ]
      }
    },
    {
      "type": "Feature",
      "properties": {
        "norad_id": 66878,
        "name": "STARLINK-35866",
        "group": "last-30-days",
        "lat": -52.45157181134137,
        "lon": -72.19104873498381,
        "alt_km": 404.9760938379559,
        "timestamp": "2025-12-26T13:39:17.666249+00:00",
        "meta_object_name": "STARLINK-35866",
        "meta_object_id": "2025-283A",
        "meta_epoch": "2025-12-26T06:00:02.999808",
        "meta_mean_motion": 15.5747003,
        "meta_eccentricity": 0.00014502,
        "meta_inclination": 53.1595,
        "meta_ra_of_asc_node": 6.6083,
        "meta_arg_of_pericenter": 90.1476,
        "meta_mean_anomaly": 199.2482,
        "meta_ephemeris_type": 0,
        "meta_classification_type": "U",
        "meta_norad_cat_id": 66878,
        "meta_element_set_no": 999,
        "meta_rev_at_epoch": 460,
        "meta_bstar": -0.030659769,
        "meta_mean_motion_dot": -0.02048487,
        "meta_mean_motion_ddot": 0,
        "tle_line1": "1 66878U 25283A   25360.25003472 -.02048487  00000+0 -30660-1 0  9994",
        "tle_line2": "2 66878  53.1595   6.6083 0001450  90.1476 199.2482 15.57470030  4602"
      },
      "geometry": {
        "type": "Point",
        "coordinates": [
          -72.19104873498381,
          -52.45157181134137
        ]
      }
    },
    {
      "type": "Feature",
      "properties": {
        "norad_id": 66879,
        "name": "STARLINK-35749",
        "group": "last-30-days",
        "lat": -51.61838726077376,
        "lon": -66.12733321397006,
        "alt_km": 404.9418744339573,
        "timestamp": "2025-12-26T13:39:17.666260+00:00",
        "meta_object_name": "STARLINK-35749",
        "meta_object_id": "2025-283B",
        "meta_epoch": "2025-12-26T06:00:02.999808",
        "meta_mean_motion": 15.57473669,
        "meta_eccentricity": 0.00014395,
        "meta_inclination": 53.1593,
        "meta_ra_of_asc_node": 6.6,
        "meta_arg_of_pericenter": 93.5272,
        "meta_mean_anomaly": 199.6995,
        "meta_ephemeris_type": 0,
        "meta_classification_type": "U",
        "meta_norad_cat_id": 66879,
        "meta_element_set_no": 999,
        "meta_rev_at_epoch": 460,
        "meta_bstar": -0.03071855,
        "meta_mean_motion_dot": -0.02052241,
        "meta_mean_motion_ddot": 0,
        "tle_line1": "1 66879U 25283B   25360.25003472 -.02052241  00000+0 -30719-1 0  9993",
        "tle_line2": "2 66879  53.1593   6.6000 0001439  93.5272 199.6995 15.57473669  4602"
      },
      "geometry": {
        "type": "Point",
        "coordinates": [
          -66.12733321397006,
          -51.61838726077376
        ]
      }
    },
    {
      "type": "Feature",
      "properties": {
        "norad_id": 66880,
        "name": "STARLINK-35844",
        "group": "last-30-days",
        "lat": -52.074556461252655,
        "lon": -69.13014620608226,
        "alt_km": 404.9525846964689,
        "timestamp": "2025-12-26T13:39:17.666270+00:00",
        "meta_object_name": "STARLINK-35844",
        "meta_object_id": "2025-283C",
        "meta_epoch": "2025-12-26T06:00:02.999808",
        "meta_mean_motion": 15.57471361,
        "meta_eccentricity": 0.0001434,
        "meta_inclination": 53.16,
        "meta_ra_of_asc_node": 6.6045,
        "meta_arg_of_pericenter": 90.7908,
        "meta_mean_anomaly": 200.5214,
        "meta_ephemeris_type": 0,
        "meta_classification_type": "U",
        "meta_norad_cat_id": 66880,
        "meta_element_set_no": 999,
        "meta_rev_at_epoch": 460,
        "meta_bstar": -0.030689292,
        "meta_mean_motion_dot": -0.0205033,
        "meta_mean_motion_ddot": 0,
        "tle_line1": "1 66880U 25283C   25360.25003472 -.02050330  00000+0 -30689-1 0  9998",
        "tle_line2": "2 66880  53.1600   6.6045 0001434  90.7908 200.5214 15.57471361  4605"
      },
      "geometry": {
        "type": "Point",
        "coordinates": [
          -69.13014620608226,
          -52.074556461252655
        ]
      }
    },
    {
      "type": "Feature",
      "properties": {
        "norad_id": 66881,
        "name": "STARLINK-35860",
        "group": "last-30-days",
        "lat": -51.08775795866566,
        "lon": -63.189718720568194,
        "alt_km": 404.9113121128821,
        "timestamp": "2025-12-26T13:39:17.666282+00:00",
        "meta_object_name": "STARLINK-35860",
        "meta_object_id": "2025-283D",
        "meta_epoch": "2025-12-26T06:00:02.999808",
        "meta_mean_motion": 15.57475013,
        "meta_eccentricity": 0.00014303,
        "meta_inclination": 53.1592,
        "meta_ra_of_asc_node": 6.5957,
        "meta_arg_of_pericenter": 89.8368,
        "meta_mean_anomaly": 205.3071,
        "meta_ephemeris_type": 0,
        "meta_classification_type": "U",
        "meta_norad_cat_id": 66881,
        "meta_element_set_no": 999,
        "meta_rev_at_epoch": 460,
        "meta_bstar": -0.030774112,
        "meta_mean_motion_dot": -0.02055644,
        "meta_mean_motion_ddot": 0,
        "tle_line1": "1 66881U 25283D   25360.25003472 -.02055644  00000+0 -30774-1 0  9997",
        "tle_line2": "2 66881  53.1592   6.5957 0001430  89.8368 205.3071 15.57475013  4604"
      },
      "geometry": {
        "type": "Point",
        "coordinates": [
          -63.189718720568194,
          -51.08775795866566
        ]
      }
    },
    {
      "type": "Feature",
      "properties": {
        "norad_id": 66882,
        "name": "STARLINK-35912",
        "group": "last-30-days",
        "lat": -50.48539510444416,
        "lon": -60.322262717854905,
        "alt_km": 404.8710237391815,
        "timestamp": "2025-12-26T13:39:17.666292+00:00",
        "meta_object_name": "STARLINK-35912",
        "meta_object_id": "2025-283E",
        "meta_epoch": "2025-12-26T06:00:02.999808",
        "meta_mean_motion": 15.57471983,
        "meta_eccentricity": 0.00014146,
        "meta_inclination": 53.1594,
        "meta_ra_of_asc_node": 6.5926,
        "meta_arg_of_pericenter": 89.5592,
        "meta_mean_anomaly": 207.5017,
        "meta_ephemeris_type": 0,
        "meta_classification_type": "U",
        "meta_norad_cat_id": 66882,
        "meta_element_set_no": 999,
        "meta_rev_at_epoch": 460,
        "meta_bstar": -0.030679255,
        "meta_mean_motion_dot": -0.02049763,
        "meta_mean_motion_ddot": 0,
        "tle_line1": "1 66882U 25283E   25360.25003472 -.02049763  00000+0 -30679-1 0  9997",
        "tle_line2": "2 66882  53.1594   6.5926 0001414  89.5592 207.5017 15.57471983  4607"
      },
      "geometry": {
        "type": "Point",
        "coordinates": [
          -60.322262717854905,
          -50.48539510444416
        ]
      }
    },
    {
      "type": "Feature",
      "properties": {
        "norad_id": 66883,
        "name": "STARLINK-35947",
        "group": "last-30-days",
        "lat": -49.81397213600024,
        "lon": -57.52931209403717,
        "alt_km": 404.8258006788492,
        "timestamp": "2025-12-26T13:39:17.666303+00:00",
        "meta_object_name": "STARLINK-35947",
        "meta_object_id": "2025-283F",
        "meta_epoch": "2025-12-26T06:00:02.999808",
        "meta_mean_motion": 15.57468425,
        "meta_eccentricity": 0.00013794,
        "meta_inclination": 53.1598,
        "meta_ra_of_asc_node": 6.5893,
        "meta_arg_of_pericenter": 92.1316,
        "meta_mean_anomaly": 206.8474,
        "meta_ephemeris_type": 0,
        "meta_classification_type": "U",
        "meta_norad_cat_id": 66883,
        "meta_element_set_no": 999,
        "meta_rev_at_epoch": 464,
        "meta_bstar": -0.030583158,
        "meta_mean_motion_dot": -0.02005752,
        "meta_mean_motion_ddot": 0,
        "tle_line1": "1 66883U 25283F   25360.25003472 -.02005752  00000+0 -30583-1 0  9992",
        "tle_line2": "2 66883  53.1598   6.5893 0001379  92.1316 206.8474 15.57468425  4649"
      },
      "geometry": {
        "type": "Point",
        "coordinates": [
          -57.52931209403717,
          -49.81397213600024
        ]
      }
    }
  ]
}